[{"OBJECT_NAME":"SPAWAR-CAL-R","OBJECT_ID":"2018-099U","EPOCH":"2026-03-08T15:37:40.202400","MEAN_MOTION":15.05212097,"ECCENTRICITY":0.00197014,"INCLINATION":97.4524,"RA_OF_ASC_NODE":111.5817,"ARG_OF_PERICENTER":348.9052,"MEAN_ANOMALY":11.1737,"EPHEMERIS_TYPE":0,"CLASSIFICATION_TYPE":"U","NORAD_CAT_ID":43776,"ELEMENT_SET_NO":999,"REV_AT_EPOCH":39687,"BSTAR":0.00025335573,"MEAN_MOTION_DOT":3.57e-5,"MEAN_MOTION_DDOT":0},{"OBJECT_NAME":"STARLINK-5132","OBJECT_ID":"2022-125AV","EPOCH":"2026-03-09T15:55:34.055904","MEAN_MOTION":15.08848066,"ECCENTRICITY":0.00012321,"INCLINATION":53.2157,"RA_OF_ASC_NODE":213.8839,"ARG_OF_PERICENTER":76.994,"MEAN_ANOMALY":283.119,"EPHEMERIS_TYPE":0,"CLASSIFICATION_TYPE":"U","NORAD_CAT_ID":54007,"ELEMENT_SET_NO":999,"REV_AT_EPOCH":18946,"BSTAR":5.5956097e-5,"MEAN_MOTION_DOT":6.03e-6,"MEAN_MOTION_DDOT":0}]
